JUGNU                   
1 37839U 11058B   26098.91901194  .00000469  00000+0  10561-3 0  9998
2 37839  19.9624   9.2482 0018518  31.9368  43.2291 14.13755282749213
SRMSAT                  
1 37841U 11058D   26098.75207903  .00000402  00000+0  74507-4 0  9998
2 37841  19.9709 119.7420 0011812 158.9802   3.9147 14.11558893747995
SUOMI NPP               
1 37849U 11061A   26098.91138588  .00000076  00000+0  56965-4 0  9995
2 37849  98.7906  40.2797 0002215 135.5773 224.5581 14.19502164748618
YAOGAN-12               
1 37875U 11066B   26098.96152368  .00005320  00000+0  21076-3 0  9997
2 37875  97.1226 140.8017 0011819 109.1529 251.0991 15.25751729801489
BEIDOU-2 M4             
1 38251U 12018B   26095.09466574 -.00000060  00000+0  00000+0 0  9999
2 38251  55.7203 306.5582 0011346 286.5726  73.3277  1.86229620 94584
ARIRANG-3 (KOMPSAT-3)   
1 38338U 12025B   26098.91631245  .00000508  00000+0  11018-3 0  9997
2 38338  98.1113  57.6000 0004974 347.0312  13.0761 14.62144942741223
HORYU-2                 
1 38340U 12025D   26098.84060639  .00003488  00000+0  36175-3 0  9996
2 38340  98.2062 229.0049 0008978  55.8680 304.3387 14.90655525738397
CSSWE                   
1 38761U 12048D   26098.86421832  .00021068  00000+0  48005-3 0  9995
2 38761  64.6637 327.6971 0061998 194.1627 165.7774 15.40927588105706
CP5                     
1 38763U 12048F   26098.90196336  .00009480  00000+0  33183-3 0  9995
2 38763  64.6475  21.2604 0092153 197.2116 162.5884 15.26034245106185
METOP-B                 
1 38771U 12049A   26098.92436957  .00000080  00000+0  56491-4 0  9998
2 38771  98.6579 151.7825 0002660 161.0002 199.1275 14.21428899703423
SJ-9A                   
1 38860U 12056A   26098.91480005  .00001193  00000+0  14397-3 0  9991
2 38860  97.6657  73.4045 0026909 123.4753 236.9040 14.85318434689302
COSMOS 2484 (RODNIK-S 6)
1 39059U 13001C   26098.92139712  .00000029  00000+0  13565-3 0  9993
2 39059  82.4978 264.9621 0026493 182.9359 177.1570 12.42937103599954
SARAL                   
1 39086U 13009A   26098.90811784  .00000085  00000+0  47060-4 0  9995
2 39086  98.5567 286.3479 0002846 114.7782 245.3698 14.32839040685681
AAUSAT 3                
1 39087U 13009B   26098.48241456  .00000708  00000+0  23903-3 0  9993
2 39087  98.3701 283.8652 0012462  64.7954 295.4525 14.39853023687147
STRAND-1                
1 39090U 13009E   26098.92062733  .00000306  00000+0  11717-3 0  9999
2 39090  98.3910 280.8636 0009838  80.1516 280.0781 14.37122103687118
BRITE-AUSTRIA           
1 39091U 13009F   26098.48600219  .00000205  00000+0  84309-4 0  9994
2 39091  98.3979 279.6511 0011404  88.9358 271.3135 14.36514042687048
UNIBRITE                
1 39092U 13009G   26098.77065254  .00000200  00000+0  82884-4 0  9992
2 39092  98.4020 280.0226 0010309  85.0917 275.1446 14.36385153687022
AIST-2 (RS43)           
1 39133U 13015D   26098.91612619  .00004562  00000+0  18607-3 0  9990
2 39133  64.8676 123.7082 0022286 247.7425 112.1341 15.25549432713332
GAOFEN-1                
1 39150U 13018A   26098.94033444  .00000188  00000+0  34221-4 0  9999
2 39150  97.9125 172.4031 0018336 126.3359 233.9547 14.76535089698027
NEE-01 PEGASO           
1 39151U 13018B   26098.85513141  .00002380  00000+0  23259-3 0  9991
2 39151  98.1112 240.7725 0013157  37.5545 322.6590 14.93324442700354
TURKSAT-3USAT           
1 39152U 13018C   26098.79625606  .00003495  00000+0  31648-3 0  9994
2 39152  97.7901 189.9434 0011067 338.8087  21.2674 14.96002426700716
CUBEBUG-1 (CAPITAN BETO)
1 39153U 13018D   26098.85739557  .00003460  00000+0  30678-3 0  9997
2 39153  98.1597 255.7634 0012097  25.2296 334.9513 14.96882174700699
PROBA-V                 
1 39159U 13021A   26098.88830685  .00000079  00000+0  52859-4 0  9993
2 39159  98.3545  80.9336 0003873 353.1553   6.9573 14.23582141671250
ESTCUBE 1               
1 39161U 13021C   26098.88839263  .00001305  00000+0  17417-3 0  9990
2 39161  97.7356 155.4956 0007037 234.7359 125.3196 14.81196334694763
ARIRANG-5 (KOMPSAT-5)   
1 39227U 13042A   26098.93086536  .00002701  00000+0  19703-3 0  9990
2 39227  97.6217 286.5970 0004203  32.7443 327.4043 15.04537869693443
GONETS-M 5              
1 39249U 13048A   26098.88768735  .00000013  00000+0  23083-4 0  9993
2 39249  82.4867  26.5785 0017199   7.8013 352.3331 12.42889586570277
GONETS-M 7              
1 39251U 13048C   26098.93240971  .00000021  00000+0  83558-4 0  9991
2 39251  82.4930  29.4362 0018046   8.8073 351.3319 12.42912465570237
FENGYUN 3C              
1 39260U 13052A   26098.92459353  .00000099  00000+0  71469-4 0  9994
2 39260  98.4936  76.0002 0013836 219.3734 140.6436 14.15738915648765
CASSIOPE                
1 39265U 13055A   26098.90232097  .00026475 -38248-6  31332-3 0  9997
2 39265  80.9154 150.5567 0305523 295.0635  61.9167 15.21016116657126
APRIZESAT 7             
1 39416U 13066A   26098.85118121  .00000931  00000+0  97770-4 0  9997
2 39416  97.7643  53.1029 0037458  81.5610 278.9852 14.91392111670892
ZACUBE-1 (TSHEPISOSAT)  
1 39417U 13066B   26098.87288789  .00003378  00000+0  26651-3 0  9995
2 39417  97.8136  60.8446 0045051 122.3168 238.2430 15.00630249670337
APRIZESAT 8             
1 39425U 13066K   26098.85885464  .00000964  00000+0  11038-3 0  9996
2 39425  97.8163  47.3280 0046666 152.3929 207.9780 14.87507133669364
CINEMA-3 (KHUSAT-2)     
1 39426U 13066L   26098.69239058  .00001403  00000+0  18792-3 0  9994
2 39426  97.8421  12.7024 0091722  77.7064 283.4399 14.78110219664182
TRITON-1                
1 39427U 13066M   26099.00152227  .00002676  00000+0  32480-3 0  9996
2 39427  97.8277  10.3921 0092032  99.5518 261.6109 14.81377057663841
DELFI-N3XT              
1 39428U 13066N   26098.41971792  .00006964  00000+0  61788-3 0  9994
2 39428  97.8341  18.8437 0077510  78.9881 282.0045 14.94183957664202
GOMX-1                  
1 39430U 13066Q   26098.92797885  .00001495  00000+0  23188-3 0  9998
2 39430  97.6540 303.7454 0127913 300.3582  58.5027 14.69219508659745
BRITE-PL1 (LEM)         
1 39431U 13066R   26098.76600248  .00000830  00000+0  17535-3 0  9998
2 39431  97.7869 216.1155 0189452 226.8435 131.6792 14.51264484653864
ICUBE-1                 
1 39432U 13066S   26098.89969661  .00011912  00000+0  49078-3 0  9990
2 39432  97.5676  83.8133 0016020 207.7718 152.2665 15.24134853673852
VELOX-PII               
1 39438U 13066Y   26098.79758583  .00002612  00000+0  25231-3 0  9996
2 39438  97.8681  50.1314 0052397 211.4347 148.3737 14.92716619667480
CUBEBUG-2 (LO-74)       
1 39440U 13066AA  26098.85413041  .00003208  00000+0  30277-3 0  9991
2 39440  97.8845  47.5909 0056517 256.9844 102.5061 14.93299935666646
NEE-02 KRYSAOR          
1 39441U 13066AB  26098.80827530  .00001713  00000+0  19350-3 0  9997
2 39441  97.8847  38.5500 0065085 297.9670  61.4968 14.86375118665893
FUNCUBE-1 (AO-73)       
1 39444U 13066AE  26098.89499363  .00006858  00000+0  43615-3 0  9994
2 39444  97.8233  68.9686 0039076  80.2473 280.3165 15.08509179669214
HINCUBE                 
1 39445U 13066AF  26098.87016997  .00006854  00000+0  45117-3 0  9996
2 39445  97.7916  66.4271 0035486  86.7925 273.7361 15.07349976669084
UWE-3                   
1 39446U 13066AG  26098.82180443  .00003906  00000+0  34095-3 0  9998
2 39446  97.8644  54.4868 0049185 188.6871 171.3504 14.96495265667200
SMDC ONE 2.4            
1 39469U 13072H   26098.89125490  .00012650  00000+0  51643-3 0  9992
2 39469 120.4907  84.8417 0136270 302.4963  56.3003 15.16840277107314
CP8 (IPEX)              
1 39471U 13072K   26098.73917185  .00007889  00000+0  41080-3 0  9990
2 39471 120.4630  34.8352 0157203 286.3729  72.0108 15.07140073104766
COSMOS 2488 (RODNIK-S 7)
1 39483U 13076A   26098.89172939  .00000008  00000+0 -10520-4 0  9997
2 39483  82.4866 211.8596 0018614 244.1876 115.7283 12.42902982557280
COSMOS 2489 (RODNIK-S 8)
1 39484U 13076B   26098.94599956 -.00000036  00000+0 -32764-3 0  9991
2 39484  82.4901 213.1817 0020437 244.1615 115.7357 12.42877970557346
COSMOS 2490 (RODNIK-S 9)
1 39485U 13076C   26098.91776362 -.00000098  00000+0 -77612-3 0  9996
2 39485  82.4850 211.2969 0020360 260.8416  99.0360 12.42875039557270
AIST-1 (RS41)           
1 39492U 13078C   26098.93114765  .00001063  00000+0  92469-4 0  9990
2 39492  82.4172 337.9681 0017538 144.8490 215.3893 14.95883726664891
KAZEOSAT 1              
1 39731U 14024A   26098.91391942  .00000083  00000+0  38384-4 0  9997
2 39731  98.3232 173.0739 0001204 101.7934 258.3391 14.42052416628572
COSMOS 2496 (RODNIK-S *)
1 39761U 14028A   26098.95585690  .00000079  00000+0  49690-3 0  9999
2 39761  82.4460 152.0954 0019087 226.9378 133.0105 12.42875868538910
COSMOS 2497 (RODNIK-S *)
1 39762U 14028B   26098.93201023 -.00000067  00000+0 -55080-3 0  9992
2 39762  82.4510 153.7731 0019731 221.7633 138.1941 12.42891071538919
COSMOS 2498 (RODNIK-S *)
1 39763U 14028C   26098.91442438 -.00000106  00000+0 -83371-3 0  9996
2 39763  82.4469 152.3015 0020451 221.5716 138.3809 12.42977950538943
COSMOS 2499 (RS47)      
1 39765U 14028E   26098.94777410  .00000023  00000+0  42081-4 0  9992
2 39765  82.4466 299.1620 0231824 163.9589 196.9018 12.82901785556140
HODOYOSHI-4             
1 40011U 14033B   26098.97454706  .00001108  00000+0  12591-3 0  9994
2 40011  97.5463 287.1425 0023694 171.5407 188.6214 14.87960539638515
UNISAT-6                
1 40012U 14033C   26098.87182938  .00002094  00000+0  23116-3 0  9999
2 40012  97.7788 252.8573 0044064 297.6246  62.0500 14.87852492635851
DEIMOS-2                
1 40013U 14033D   26098.91262163  .00001333  00000+0  13174-3 0  9992
2 40013  97.5920 335.8071 0001239 110.2772 249.8582 14.93534429627382
BUGSAT-1 (TITA)         
1 40014U 14033E   26098.96037712  .00004976  00000+0  26825-3 0  9991
2 40014  98.0402 187.5094 0029532  59.0507 301.3620 15.14919648645351
